[{"OBJECT_NAME":"STARLINK-33566","OBJECT_ID":"2024-220N","EPOCH":"2026-03-09T09:08:12.788448","MEAN_MOTION":15.27597971,"ECCENTRICITY":0.00029148,"INCLINATION":43.0033,"RA_OF_ASC_NODE":192.5791,"ARG_OF_PERICENTER":270.6641,"MEAN_ANOMALY":89.3877,"EPHEMERIS_TYPE":0,"CLASSIFICATION_TYPE":"U","NORAD_CAT_ID":62100,"ELEMENT_SET_NO":999,"REV_AT_EPOCH":7331,"BSTAR":0.0011706951,"MEAN_MOTION_DOT":0.00032113,"MEAN_MOTION_DDOT":0},{"OBJECT_NAME":"TEVEL2-7","OBJECT_ID":"2025-052AE","EPOCH":"2026-03-09T15:52:01.887744","MEAN_MOTION":15.28414096,"ECCENTRICITY":0.00081048,"INCLINATION":97.4054,"RA_OF_ASC_NODE":324.3041,"ARG_OF_PERICENTER":124.683,"MEAN_ANOMALY":235.5175,"EPHEMERIS_TYPE":0,"CLASSIFICATION_TYPE":"U","NORAD_CAT_ID":63238,"ELEMENT_SET_NO":999,"REV_AT_EPOCH":5480,"BSTAR":0.00069668191,"MEAN_MOTION_DOT":0.00019244,"MEAN_MOTION_DDOT":0}]
